ONEWEB-0309             
1 49095U 21075W   23289.44971922  .00000049  00000+0  93566-4 0  9999
2 49095  87.9182 199.5846 0001237  61.9685 298.1572 13.17648728105214
ONEWEB-0310             
1 49096U 21075X   23289.46764232  .00000418  00000+0  11262-2 0  9997
2 49096  87.9071 184.4682 0001585  66.1297 293.9998 13.12444508107330
ONEWEB-0311             
1 49097U 21075Y   23289.45603767  .00000089  00000+0  19676-3 0  9994
2 49097  87.9185 199.5867 0001724  91.0085 269.1244 13.17652139105261
ONEWEB-0312             
1 49098U 21075Z   23289.46870617 -.00000014  00000+0 -70104-4 0  9990
2 49098  87.9267 199.5928 0001347  82.0616 278.0669 13.17648650105243
ONEWEB-0313             
1 49099U 21075AA  23289.44760523  .00000976  00000+0  24795-2 0  9991
2 49099  87.9255 199.6109 0001630  81.6954 278.4362 13.17646057105230
ONEWEB-0314             
1 49100U 21075AB  23289.28939938  .00000113  00000+0  25906-3 0  9993
2 49100  87.9178 199.6122 0001250  85.5483 274.5792 13.17649903105181
ONEWEB-0315             
1 49101U 21075AC  23289.43904708 -.00000258  00000+0 -75175-3 0  9993
2 49101  87.9066 184.4826 0002041  77.5280 282.6077 13.12446385107313
ONEWEB-0316             
1 49102U 21075AD  23289.60117904  .00000050  00000+0  94317-4 0  9995
2 49102  87.9202 169.3335 0001723  86.9692 273.1637 13.18686848108763
